NORAD_CAT_ID,OBJECT_NAME,OBJECT_TYPE,EPOCH,MEAN_MOTION,ECCENTRICITY,INCLINATION,RA_OF_ASC_NODE,ARG_OF_PERICENTER,MEAN_ANOMALY,BSTAR,MEAN_MOTION_DOT,MEAN_MOTION_DDOT,TLE_LINE0,TLE_LINE1,TLE_LINE2,SEMIMAJOR_AXIS,PERIOD,APOGEE,PERIGEE,DECAYED
52278.0,STARLINK-3780,PAYLOAD,2024-05-11 11:56:44,15.08867415,0.0001214,53.2161,224.2605,71.6212,288.4912,0.00029381,4.395e-05,0.0,0 STARLINK-3780,1 52278U 22041T   24132.49773759  .00004395  00000-0  29381-3 0  9993,2 52278  53.2161 224.2605 0001214  71.6212 288.4912 15.08867415114861,6917.797,95.436,540.501,538.822,0.0
52278.0,STARLINK-3780,PAYLOAD,2024-05-11 15:07:30,15.08865709,0.0001427,53.2163,223.6658,117.9377,242.1759,0.00025951,3.847e-05,0.0,0 STARLINK-3780,1 52278U 22041T   24132.63021533  .00003847  00000-0  25951-3 0  9995,2 52278  53.2163 223.6658 0001427 117.9377 242.1759 15.08865709113663,6917.802,95.436,540.654,538.68,0.0
52278.0,STARLINK-3780,PAYLOAD,2024-05-11 23:04:30,15.08815804,0.0002586,53.2169,222.1806,80.3392,279.7892,-0.00015377,-2.733e-05,0.0,0 STARLINK-3780,1 52278U 22041T   24132.96146797 -.00002733  00000-0 -15377-3 0  9997,2 52278  53.2169 222.1806 0002586  80.3392 279.7892 15.08815804114931,6917.954,95.439,541.608,538.03,0.0
52278.0,STARLINK-3780,PAYLOAD,2024-05-12 13:23:07,15.08666344,0.0001491,53.2163,219.5048,95.6422,264.474,-0.0021077,-0.00033517,0.0,0 STARLINK-3780,1 52278U 22041T   24133.55773060 -.00033517  00000-0 -21077-2 0  9999,2 52278  53.2163 219.5048 0001491  95.6422 264.4740 15.08666344115027,6918.411,95.449,541.308,539.245,0.0
52278.0,STARLINK-3780,PAYLOAD,2024-05-13 05:16:57,15.08774781,0.0001193,53.2163,216.5307,106.2472,253.8652,-0.00026486,-4.493e-05,0.0,0 STARLINK-3780,1 52278U 22041T   24134.22010631 -.00004493  00000-0 -26486-3 0  9993,2 52278  53.2163 216.5307 0001193 106.2472 253.8652 15.08774781115125,6918.08,95.442,540.77,539.119,0.0
52278.0,STARLINK-3780,PAYLOAD,2024-05-13 11:38:26,15.08838178,0.0001648,53.2166,215.3443,106.0867,254.0306,0.00011526,1.547e-05,0.0,0 STARLINK-3780,1 52278U 22041T   24134.48503214  .00001547  00000-0  11526-3 0  9999,2 52278  53.2166 215.3443 0001648 106.0867 254.0306 15.08838178115161,6917.886,95.438,540.891,538.611,0.0
52278.0,STARLINK-3780,PAYLOAD,2024-05-14 05:07:43,15.08763802,0.0001562,53.2159,212.0718,109.0525,251.0637,0.0013958,0.0002195,0.0,0 STARLINK-3780,1 52278U 22041T   24135.21369518  .00021950  00000-0  13958-2 0  9998,2 52278  53.2159 212.0718 0001562 109.0525 251.0637 15.08763802115278,6918.113,95.442,541.059,538.898,0.0
52278.0,STARLINK-3780,PAYLOAD,2024-05-14 11:29:17,15.08765872,0.0001672,53.2181,210.8783,117.0847,243.0316,0.0013011,0.00020438,0.0,0 STARLINK-3780,1 52278U 22041T   24135.47867316  .00020438  00000-0  13011-2 0  9995,2 52278  53.2181 210.8783 0001672 117.0847 243.0316 15.08765872115318,6918.107,95.442,541.129,538.815,0.0
52278.0,STARLINK-3780,PAYLOAD,2024-05-14 22:36:59,15.08786799,0.0002481,53.2195,208.7981,157.5442,202.5659,0.0011109,0.00017411,0.0,0 STARLINK-3780,1 52278U 22041T   24135.94235824  .00017411  00000-0  11109-2 0  9993,2 52278  53.2195 208.7981 0002481 157.5442 202.5659 15.08786799114161,6918.043,95.441,541.624,538.192,0.0
52278.0,STARLINK-3780,PAYLOAD,2024-05-15 04:58:29,15.08877482,0.0001503,53.2172,207.6095,120.8293,239.2847,3.4376e-05,2.6e-06,0.0,0 STARLINK-3780,1 52278U 22041T   24136.20728972  .00000260  00000-0  34376-4 0  9991,2 52278  53.2172 207.6095 0001503 120.8293 239.2847 15.08877482115427,6917.766,95.435,540.671,538.591,0.0
52278.0,STARLINK-3780,PAYLOAD,2024-05-15 11:20:00,15.08901284,0.0002038,53.2184,206.4173,120.2038,239.9156,0.00021093,3.076e-05,0.0,0 STARLINK-3780,1 52278U 22041T   24136.47222260  .00003076  00000-0  21093-3 0  9998,2 52278  53.2184 206.4173 0002038 120.2038 239.9156 15.08901284115461,6917.693,95.434,540.968,538.148,0.0
52278.0,STARLINK-3780,PAYLOAD,2024-05-16 11:10:41,15.08924975,0.0001318,53.2163,201.958,95.9599,264.1543,0.0005241,8.082e-05,0.0,0 STARLINK-3780,1 52278U 22041T   24137.46576235  .00008082  00000-0  52410-3 0  9991,2 52278  53.2163 201.9580 0001318  95.9599 264.1543 15.08924975115619,6917.621,95.432,540.397,538.574,0.0
52278.0,STARLINK-3780,PAYLOAD,2024-05-16 20:42:57,15.08943869,0.0001668,53.218,200.1749,104.3908,255.727,0.00060674,9.409e-05,0.0,0 STARLINK-3780,1 52278U 22041T   24137.86316265  .00009409  00000-0  60674-3 0  9995,2 52278  53.2180 200.1749 0001668 104.3908 255.7270 15.08943869114450,6917.563,95.431,540.582,538.274,0.0
52278.0,STARLINK-3780,PAYLOAD,2024-05-17 11:01:32,15.08841307,0.0001428,53.2161,197.4988,93.7009,266.4147,-0.00053117,-8.732e-05,0.0,0 STARLINK-3780,1 52278U 22041T   24138.45940835 -.00008732  00000-0 -53117-3 0  9991,2 52278  53.2161 197.4988 0001428  93.7009 266.4147 15.08841307115760,6917.876,95.437,540.729,538.754,0.0
52278.0,STARLINK-3780,PAYLOAD,2024-05-17 20:33:50,15.08849948,0.0001348,53.2157,195.7144,80.0351,280.0794,-0.00052271,-8.599e-05,0.0,0 STARLINK-3780,1 52278U 22041T   24138.85683477 -.00008599  00000-0 -52271-3 0  9992,2 52278  53.2157 195.7144 0001348  80.0351 280.0794 15.08849948115826,6917.85,95.437,540.648,538.782,0.0
52278.0,STARLINK-3780,PAYLOAD,2024-05-18 10:52:15,15.08886001,0.0001177,53.2152,193.0363,74.2309,285.8812,-0.00038184,-6.367e-05,0.0,0 STARLINK-3780,1 52278U 22041T   24139.45295918 -.00006367  00000-0 -38184-3 0  9996,2 52278  53.2152 193.0363 0001177  74.2309 285.8812 15.08886001115918,6917.74,95.435,540.419,538.791,0.0
52278.0,STARLINK-3780,PAYLOAD,2024-05-18 14:03:01,15.08885657,0.0001176,53.2151,192.4413,74.9925,285.1197,-0.00036243,-6.059e-05,0.0,0 STARLINK-3780,1 52278U 22041T   24139.58543569 -.00006059  00000-0 -36243-3 0  9990,2 52278  53.2151 192.4413 0001176  74.9925 285.1197 15.08885657114718,6917.741,95.435,540.419,538.792,0.0
52278.0,STARLINK-3780,PAYLOAD,2024-05-19 10:43:05,15.08803792,0.0001337,53.2155,188.5777,121.2433,238.869,0.00018647,2.678e-05,0.0,0 STARLINK-3780,1 52278U 22041T   24140.44659127  .00002678  00000-0  18647-3 0  9994,2 52278  53.2155 188.5777 0001337 121.2433 238.8690 15.08803792114847,6917.991,95.44,540.781,538.931,0.0
52278.0,STARLINK-3780,PAYLOAD,2024-05-20 10:33:51,15.088416,0.0001689,53.2172,184.115,92.1918,267.9268,5.2568e-05,5.49e-06,0.0,0 STARLINK-3780,1 52278U 22041T   24141.44018515  .00000549  00000-0  52568-4 0  9991,2 52278  53.2172 184.1150 0001689  92.1918 267.9268 15.08841600116214,6917.875,95.437,540.909,538.572,0.0
52278.0,STARLINK-3780,PAYLOAD,2024-05-21 08:49:15,15.08835684,0.0001417,53.2164,179.9516,95.9228,264.1925,0.00028209,4.204e-05,0.0,0 STARLINK-3780,1 52278U 22041T   24142.36754348  .00004204  00000-0  28209-3 0  9990,2 52278  53.2164 179.9516 0001417  95.9228 264.1925 15.08835684115131,6917.894,95.438,540.739,538.778,0.0
52278.0,STARLINK-3780,PAYLOAD,2024-05-22 08:40:02,15.08851328,0.000129,53.2161,175.4913,108.4913,251.6219,3.9944e-05,3.48e-06,0.0,0 STARLINK-3780,1 52278U 22041T   24143.36113654  .00000348  00000-0  39944-4 0  9994,2 52278  53.2161 175.4913 0001290 108.4913 251.6219 15.08851328116502,6917.846,95.437,540.603,538.818,0.0
52278.0,STARLINK-3780,PAYLOAD,2024-05-23 02:09:16,15.08841958,0.0001293,53.2156,172.2208,99.4967,260.6172,1.964e-05,2.5e-07,0.0,0 STARLINK-3780,1 52278U 22041T   24144.08977948  .00000025  00000-0  19640-4 0  9991,2 52278  53.2156 172.2208 0001293  99.4967 260.6172 15.08841958116617,6917.874,95.437,540.634,538.845,0.0
52278.0,STARLINK-3780,PAYLOAD,2024-05-23 08:30:49,15.08838409,0.0001279,53.2156,171.03,98.8395,261.2742,-3.0749e-05,-7.77e-06,0.0,0 STARLINK-3780,1 52278U 22041T   24144.35474243 -.00000777  00000-0 -30749-4 0  9990,2 52278  53.2156 171.0300 0001279  98.8395 261.2742 15.08838409115435,6917.885,95.438,540.635,538.865,0.0
52278.0,STARLINK-3780,PAYLOAD,2024-05-24 05:10:50,15.0884067,0.0001276,53.2157,167.1628,97.9454,262.1683,3.052e-05,1.98e-06,0.0,0 STARLINK-3780,1 52278U 22041T   24145.21585760  .00000198  00000-0  30520-4 0  9995,2 52278  53.2157 167.1628 0001276  97.9454 262.1683 15.08840670116784,6917.878,95.438,540.626,538.861,0.0
52278.0,STARLINK-3780,PAYLOAD,2024-05-24 08:21:36,15.08844624,0.000136,53.2158,166.5688,98.9687,261.1459,6.7173e-05,7.81e-06,0.0,0 STARLINK-3780,1 52278U 22041T   24145.34833384  .00000781  00000-0  67173-4 0  9999,2 52278  53.2158 166.5688 0001360  98.9687 261.1459 15.08844624115587,6917.866,95.437,540.672,538.79,0.0
52278.0,STARLINK-3780,PAYLOAD,2024-05-24 17:53:54,15.08847679,0.0001321,53.2162,164.7894,113.6673,246.4457,8.9014e-05,1.129e-05,0.0,0 STARLINK-3780,1 52278U 22041T   24145.74576908  .00001129  00000-0  89014-4 0  9994,2 52278  53.2162 164.7894 0001321 113.6673 246.4457 15.08847679116867,6917.857,95.437,540.636,538.808,0.0
52278.0,STARLINK-3780,PAYLOAD,2024-05-25 05:01:37,15.08833078,0.0001434,53.2159,162.7045,98.2471,261.8684,6.0155e-05,6.69e-06,0.0,0 STARLINK-3780,1 52278U 22041T   24146.20946147  .00000669  00000-0  60155-4 0  9995,2 52278  53.2159 162.7045 0001434  98.2471 261.8684 15.08833078116937,6917.902,95.438,540.759,538.775,0.0
52278.0,STARLINK-3780,PAYLOAD,2024-05-25 08:12:24,15.08829426,0.0001379,53.216,162.1116,88.1321,271.9829,3.1301e-05,2.1e-06,0.0,0 STARLINK-3780,1 52278U 22041T   24146.34194591  .00000210  00000-0  31301-4 0  9991,2 52278  53.2160 162.1116 0001379  88.1321 271.9829 15.08829426115734,6917.913,95.438,540.732,538.824,0.0
52278.0,STARLINK-3780,PAYLOAD,2024-05-25 17:44:44,15.08810468,0.000114,53.2161,160.3302,109.4139,250.6976,-0.00019435,-3.377e-05,0.0,0 STARLINK-3780,1 52278U 22041T   24146.73940361 -.00003377  00000-0 -19435-3 0  9990,2 52278  53.2161 160.3302 0001140 109.4139 250.6976 15.08810468117018,6917.971,95.439,540.624,539.047,0.0
52278.0,STARLINK-3780,PAYLOAD,2024-05-26 09:38:34,15.08837283,0.0001379,53.2161,157.3545,87.3367,272.7783,1.3055e-05,-8e-07,0.0,0 STARLINK-3780,1 52278U 22041T   24147.40178500 -.00000080  00000-0  13055-4 0  9993,2 52278  53.2161 157.3545 0001379  87.3367 272.7783 15.08837283117110,6917.889,95.438,540.708,538.8,0.0
